start=new Date('2023-02-01T00:00:00.000Z').valueOf();
sats=[{"BSTAR":"-0.00459370000000","OBJECT_NAME":"STARLINK-4623","PERIOD":"91.047","EPHEMERIS_TYPE":"0","MEAN_MOTION_DOT":"-0.00837298","MEAN_MOTION":"15.81603078","MEAN_MOTION_DDOT":"0.0000000000000","GP_ID":"224129285","MEAN_ELEMENT_THEORY":"SGP4","EPOCH":"2023-01-31T22:00:00.999936","FILE":"3766747","ELEMENT_SET_NO":"999","RCS_SIZE":"LARGE","CLASSIFICATION_TYPE":"U","TLE_LINE2":"2 55315  69.9999  34.2615 0003466 270.9951 284.3081 15.81603078  1304","REV_AT_EPOCH":"130","PERIAPSIS":"323.585","TLE_LINE1":"1 55315U 23010AY  23031.91667824 -.00837298  00000-0 -45937-2 0  9996","SEMIMAJOR_AXIS":"6704.044","REF_FRAME":"TEME","NORAD_CAT_ID":"55315","MEAN_ANOMALY":"284.3081","TIME_SYSTEM":"UTC","SITE":"AFWTR","DECAY_DATE":null,"APOAPSIS":"328.232","RA_OF_ASC_NODE":"34.2615","ARG_OF_PERICENTER":"270.9951","COUNTRY_CODE":"US","INCLINATION":"69.9999","ECCENTRICITY":"0.00034660","OBJECT_TYPE":"PAYLOAD","OBJECT_ID":"2023-010AY","LAUNCH_DATE":"2023-01-19","CENTER_NAME":"EARTH"},{"OBJECT_TYPE":"PAYLOAD","OBJECT_ID":"2023-010AZ","LAUNCH_DATE":"2023-01-19","CENTER_NAME":"EARTH","RA_OF_ASC_NODE":"34.3675","ARG_OF_PERICENTER":"270.1693","COUNTRY_CODE":"US","INCLINATION":"69.9999","ECCENTRICITY":"0.00034840","SITE":"AFWTR","DECAY_DATE":null,"APOAPSIS":"337.110","SEMIMAJOR_AXIS":"6712.906","NORAD_CAT_ID":"55316","REF_FRAME":"TEME","MEAN_ANOMALY":"194.8589","TIME_SYSTEM":"UTC","ELEMENT_SET_NO":"999","RCS_SIZE":"LARGE","CLASSIFICATION_TYPE":"U","TLE_LINE2":"2 55316  69.9999  34.3675 0003484 270.1693 194.8589 15.78472071  1308","REV_AT_EPOCH":"130","PERIAPSIS":"332.432","TLE_LINE1":"1 55316U 23010AZ  23031.91667824 -.00905535  00000-0 -57819-2 0  9999","GP_ID":"224129537","MEAN_ELEMENT_THEORY":"SGP4","EPOCH":"2023-01-31T22:00:00.999936","FILE":"3766747","MEAN_MOTION":"15.78472071","MEAN_MOTION_DDOT":"0.0000000000000","BSTAR":"-0.00578190000000","OBJECT_NAME":"STARLINK-5257","PERIOD":"91.227","EPHEMERIS_TYPE":"0","MEAN_MOTION_DOT":"-0.00905535"},{"APOAPSIS":"327.751","DECAY_DATE":null,"SITE":"AFWTR","TIME_SYSTEM":"UTC","MEAN_ANOMALY":"292.0634","REF_FRAME":"TEME","NORAD_CAT_ID":"55317","SEMIMAJOR_AXIS":"6703.549","CENTER_NAME":"EARTH","OBJECT_ID":"2023-010BA","LAUNCH_DATE":"2023-01-19","OBJECT_TYPE":"PAYLOAD","INCLINATION":"69.9997","ECCENTRICITY":"0.00034870","ARG_OF_PERICENTER":"271.0192","COUNTRY_CODE":"US","RA_OF_ASC_NODE":"34.2522","MEAN_MOTION":"15.81778216","MEAN_MOTION_DDOT":"0.0000000000000","MEAN_MOTION_DOT":"-0.00837321","PERIOD":"91.037","EPHEMERIS_TYPE":"0","BSTAR":"-0.00455640000000","OBJECT_NAME":"STARLINK-5265","PERIAPSIS":"323.076","TLE_LINE1":"1 55317U 23010BA  23031.91667824 -.00837321  00000-0 -45564-2 0  9991","TLE_LINE2":"2 55317  69.9997  34.2522 0003487 271.0192 292.0634 15.81778216  1300","REV_AT_EPOCH":"130","CLASSIFICATION_TYPE":"U","ELEMENT_SET_NO":"999","RCS_SIZE":"LARGE","FILE":"3766747","EPOCH":"2023-01-31T22:00:00.999936","MEAN_ELEMENT_THEORY":"SGP4","GP_ID":"224130287"},{"TIME_SYSTEM":"UTC","MEAN_ANOMALY":"291.9292","REF_FRAME":"TEME","NORAD_CAT_ID":"55318","SEMIMAJOR_AXIS":"6703.499","APOAPSIS":"327.708","DECAY_DATE":null,"SITE":"AFWTR","INCLINATION":"69.9998","ECCENTRICITY":"0.00034970","ARG_OF_PERICENTER":"271.9199","COUNTRY_CODE":"US","RA_OF_ASC_NODE":"34.2509","CENTER_NAME":"EARTH","OBJECT_ID":"2023-010BB","LAUNCH_DATE":"2023-01-19","OBJECT_TYPE":"PAYLOAD","MEAN_MOTION_DOT":"-0.00837254","PERIOD":"91.036","EPHEMERIS_TYPE":"0","BSTAR":"-0.00455220000000","OBJECT_NAME":"STARLINK-5180","MEAN_MOTION":"15.81795981","MEAN_MOTION_DDOT":"0.0000000000000","FILE":"3766610","EPOCH":"2023-01-31T22:00:00.999936","MEAN_ELEMENT_THEORY":"SGP4","GP_ID":"224100213","PERIAPSIS":"323.019","TLE_LINE1":"1 55318U 23010BB  23031.91667824 -.00837254  00000-0 -45522-2 0  9991","TLE_LINE2":"2 55318  69.9998  34.2509 0003497 271.9199 291.9292 15.81795981  2457","REV_AT_EPOCH":"245","CLASSIFICATION_TYPE":"U","ELEMENT_SET_NO":"999","RCS_SIZE":"LARGE"},{"DECAY_DATE":null,"SITE":"AFWTR","APOAPSIS":"327.669","NORAD_CAT_ID":"55319","REF_FRAME":"TEME","SEMIMAJOR_AXIS":"6703.473","TIME_SYSTEM":"UTC","MEAN_ANOMALY":"293.1616","OBJECT_TYPE":"PAYLOAD","CENTER_NAME":"EARTH","LAUNCH_DATE":"2023-01-19","OBJECT_ID":"2023-010BC","COUNTRY_CODE":"US","ARG_OF_PERICENTER":"271.0673","RA_OF_ASC_NODE":"34.2510","ECCENTRICITY":"0.00034770","INCLINATION":"69.9999","MEAN_MOTION_DDOT":"0.0000000000000","MEAN_MOTION":"15.81805048","OBJECT_NAME":"STARLINK-5196","BSTAR":"-0.00455010000000","MEAN_MOTION_DOT":"-0.00837216","EPHEMERIS_TYPE":"0","PERIOD":"91.035","CLASSIFICATION_TYPE":"U","RCS_SIZE":"LARGE","ELEMENT_SET_NO":"999","TLE_LINE1":"1 55319U 23010BC  23031.91667824 -.00837216  00000-0 -45501-2 0  9997","PERIAPSIS":"323.007","REV_AT_EPOCH":"130","TLE_LINE2":"2 55319  69.9999  34.2510 0003477 271.0673 293.1616 15.81805048  1300","MEAN_ELEMENT_THEORY":"SGP4","GP_ID":"224128786","FILE":"3766747","EPOCH":"2023-01-31T22:00:00.999936"}];
